'"Name","Last name","Address","City","State","Homephone","Make ","Engine","Email Id"'
'"  Wesley","T","test","Hamburg","saskatchewan","454-5454","Audi","2.5l","test@gmail.com"'
'"Testa","P","test","Hamburg","saskatchewan ","454-5454 ","Audi","2.5l","test@gmail.com"'
'"Cam","Tom","test","Hamburg","saskatchewan","454-5523 ","Audi","2.5l","test@gmail.com"'
'"stus","s","test","Branfordtest","saskatchewan","454-5425 ","Audi","2.5l","test@gmail.com"'
'"minu","h","test","Branfordtest","ontario","454-5454 ","Audi","2.5l","test@gmail.com"'
'"David","P","test","Branfordtest","quebec","454-5426 ","Audi","2.5l","test@gmail.com"'
'"Siso","sam","test","Branfordtest","quebec","454-5454 ","Audi","2.5l","test@gmail.com"'
'"willam","T","test","Branfordtest","quebec","454-5454 ","Audi","2.5l","test@gmail.com"'
'"Sam","po","test","Branfordtest","ontario","454-5454 ","Audi","2.5l","test@gmail.com"'
'"tom","P","test","Branfordtest","ontario","454-5454 ","Audi","2.5l","test@gmail.com"'
'"Jithin","P","California","Branfordtest","ontario","454-365 ","BMW","2.5l","BMW@gmail.com"'
'"Robinson","P","Arizona","Branfordtest","ontario","454-252 ","Ferrari","2.5l","Ferrari@gmail.com"'
'"Sajith","P","Alaska","Branfordtest","ontario","454-121 ","Wolkswagon","2.5l","Wolkswagon@gmail.com"'
'"Sijo","P","Colorado","Branfordtest","ontario","454-5454 ","Hyundai","2.5l","Hyundai@gmail.com"'
'"Martin","P","Florida","Branfordtest","ontario","454-477 ","Toyota","2.5l","Toyota@gmail.com"'
'"Jubin","P","Hawaii","Branfordtest","ontario","788-477 ","Honda","2.5l","Honda@gmail.com"'
'"Jobin","P","Kentucky","Branfordtest","ontario","911-477 ","Jeep","2.5l","Jeep@gmail.com"'
'"Subin","P","Louisiana","Branfordtest","ontario","454-313 ","GMC","2.5l","GMC@gmail.com"'
'"Justin","P","Maryland","Branfordtest","ontario","443-567 ","Ford","2.5l","Ford@gmail.com"'
'"Suvarus","P","Minnesotta","Branfordtest","ontario","121-567 ","Hummer","2.5l","Hummer@gmail.com"'
